{
  "type": "FeatureCollection",
  "features": [
    {
      "type": "Feature",
      "properties": {
        "norad_id": 66576,
        "name": "STARLINK-35814",
        "group": "last-30-days",
        "lat": -34.43520048376361,
        "lon": 5.324847055671915,
        "alt_km": 416.92144160131465,
        "timestamp": "2025-12-09T20:37:08.056310+00:00",
        "meta_object_name": "STARLINK-35814",
        "meta_object_id": "2025-268V",
        "meta_epoch": "2025-12-09T14:00:01.999872",
        "meta_mean_motion": 15.50588071,
        "meta_eccentricity": 0.00019883,
        "meta_inclination": 43.0006,
        "meta_ra_of_asc_node": 139.568,
        "meta_arg_of_pericenter": 265.5517,
        "meta_mean_anomaly": 229.2746,
        "meta_ephemeris_type": 0,
        "meta_classification_type": "U",
        "meta_norad_cat_id": 66576,
        "meta_element_set_no": 999,
        "meta_rev_at_epoch": 416,
        "meta_bstar": -0.001118318,
        "meta_mean_motion_dot": -0.00065427,
        "meta_mean_motion_ddot": 0,
        "tle_line1": "1 66576U 25268V   25343.58335648 -.00065427  00000+0 -11183-2 0  9993",
        "tle_line2": "2 66576  43.0006 139.5680 0001988 265.5517 229.2746 15.50588071  4167"
      },
      "geometry": {
        "type": "Point",
        "coordinates": [
          5.324847055671915,
          -34.43520048376361
        ]
      }
    },
    {
      "type": "Feature",
      "properties": {
        "norad_id": 66577,
        "name": "STARLINK-35815",
        "group": "last-30-days",
        "lat": -35.30502861655191,
        "lon": 7.409107863627018,
        "alt_km": 416.99495073754497,
        "timestamp": "2025-12-09T20:37:08.056320+00:00",
        "meta_object_name": "STARLINK-35815",
        "meta_object_id": "2025-268W",
        "meta_epoch": "2025-12-09T14:00:01.999872",
        "meta_mean_motion": 15.50634582,
        "meta_eccentricity": 0.00019029,
        "meta_inclination": 43.0006,
        "meta_ra_of_asc_node": 139.5629,
        "meta_arg_of_pericenter": 267.7625,
        "meta_mean_anomaly": 228.9617,
        "meta_ephemeris_type": 0,
        "meta_classification_type": "U",
        "meta_norad_cat_id": 66577,
        "meta_element_set_no": 999,
        "meta_rev_at_epoch": 416,
        "meta_bstar": -0.0023514315,
        "meta_mean_motion_dot": -0.00136193,
        "meta_mean_motion_ddot": 0,
        "tle_line1": "1 66577U 25268W   25343.58335648 -.00136193  00000+0 -23514-2 0  9994",
        "tle_line2": "2 66577  43.0006 139.5629 0001902 267.7625 228.9617 15.50634582  4163"
      },
      "geometry": {
        "type": "Point",
        "coordinates": [
          7.409107863627018,
          -35.30502861655191
        ]
      }
    },
    {
      "type": "Feature",
      "properties": {
        "norad_id": 66578,
        "name": "STARLINK-35743",
        "group": "last-30-days",
        "lat": -36.13494710333501,
        "lon": 9.529237596968546,
        "alt_km": 417.04963863650846,
        "timestamp": "2025-12-09T20:37:08.056330+00:00",
        "meta_object_name": "STARLINK-35743",
        "meta_object_id": "2025-268X",
        "meta_epoch": "2025-12-09T14:00:01.999872",
        "meta_mean_motion": 15.50634502,
        "meta_eccentricity": 0.00018973,
        "meta_inclination": 43.0007,
        "meta_ra_of_asc_node": 139.5579,
        "meta_arg_of_pericenter": 270.358,
        "meta_mean_anomaly": 228.2835,
        "meta_ephemeris_type": 0,
        "meta_classification_type": "U",
        "meta_norad_cat_id": 66578,
        "meta_element_set_no": 999,
        "meta_rev_at_epoch": 416,
        "meta_bstar": -0.0023482361,
        "meta_mean_motion_dot": -0.00136011,
        "meta_mean_motion_ddot": 0,
        "tle_line1": "1 66578U 25268X   25343.58335648 -.00136011  00000+0 -23482-2 0  9998",
        "tle_line2": "2 66578  43.0007 139.5579 0001897 270.3580 228.2835 15.50634502  4169"
      },
      "geometry": {
        "type": "Point",
        "coordinates": [
          9.529237596968546,
          -36.13494710333501
        ]
      }
    },
    {
      "type": "Feature",
      "properties": {
        "norad_id": 66579,
        "name": "STARLINK-35868",
        "group": "last-30-days",
        "lat": -36.92746272306051,
        "lon": 11.696175238112769,
        "alt_km": 416.98193649949553,
        "timestamp": "2025-12-09T20:37:08.056340+00:00",
        "meta_object_name": "STARLINK-35868",
        "meta_object_id": "2025-268Y",
        "meta_epoch": "2025-12-09T14:00:01.999872",
        "meta_mean_motion": 15.50643198,
        "meta_eccentricity": 0.00020095,
        "meta_inclination": 43.0006,
        "meta_ra_of_asc_node": 139.5522,
        "meta_arg_of_pericenter": 269.4514,
        "meta_mean_anomaly": 231.104,
        "meta_ephemeris_type": 0,
        "meta_classification_type": "U",
        "meta_norad_cat_id": 66579,
        "meta_element_set_no": 999,
        "meta_rev_at_epoch": 416,
        "meta_bstar": -0.0025366379,
        "meta_mean_motion_dot": -0.00146744,
        "meta_mean_motion_ddot": 0,
        "tle_line1": "1 66579U 25268Y   25343.58335648 -.00146744  00000+0 -25366-2 0  9996",
        "tle_line2": "2 66579  43.0006 139.5522 0002009 269.4514 231.1040 15.50643198  4161"
      },
      "geometry": {
        "type": "Point",
        "coordinates": [
          11.696175238112769,
          -36.92746272306051
        ]
      }
    },
    {
      "type": "Feature",
      "properties": {
        "norad_id": 66580,
        "name": "STARLINK-35872",
        "group": "last-30-days",
        "lat": -37.68121839341825,
        "lon": 13.914459846374918,
        "alt_km": 417.06811599334105,
        "timestamp": "2025-12-09T20:37:08.056353+00:00",
        "meta_object_name": "STARLINK-35872",
        "meta_object_id": "2025-268Z",
        "meta_epoch": "2025-12-09T14:00:01.999872",
        "meta_mean_motion": 15.50651538,
        "meta_eccentricity": 0.00018363,
        "meta_inclination": 43.0004,
        "meta_ra_of_asc_node": 139.5481,
        "meta_arg_of_pericenter": 266.0399,
        "meta_mean_anomaly": 236.4332,
        "meta_ephemeris_type": 0,
        "meta_classification_type": "U",
        "meta_norad_cat_id": 66580,
        "meta_element_set_no": 999,
        "meta_rev_at_epoch": 416,
        "meta_bstar": -0.002809743,
        "meta_mean_motion_dot": -0.00162234,
        "meta_mean_motion_ddot": 0,
        "tle_line1": "1 66580U 25268Z   25343.58335648 -.00162234  00000+0 -28097-2 0  9994",
        "tle_line2": "2 66580  43.0004 139.5481 0001836 266.0399 236.4332 15.50651538  4165"
      },
      "geometry": {
        "type": "Point",
        "coordinates": [
          13.914459846374918,
          -37.68121839341825
        ]
      }
    },
    {
      "type": "Feature",
      "properties": {
        "norad_id": 66581,
        "name": "STARLINK-35744",
        "group": "last-30-days",
        "lat": -38.38794546812894,
        "lon": 16.160071549790175,
        "alt_km": 417.04335108791565,
        "timestamp": "2025-12-09T20:37:08.056363+00:00",
        "meta_object_name": "STARLINK-35744",
        "meta_object_id": "2025-268AA",
        "meta_epoch": "2025-12-09T14:00:01.999872",
        "meta_mean_motion": 15.50639905,
        "meta_eccentricity": 0.00019098,
        "meta_inclination": 43.0004,
        "meta_ra_of_asc_node": 139.5425,
        "meta_arg_of_pericenter": 266.1761,
        "meta_mean_anomaly": 238.214,
        "meta_ephemeris_type": 0,
        "meta_classification_type": "U",
        "meta_norad_cat_id": 66581,
        "meta_element_set_no": 999,
        "meta_rev_at_epoch": 411,
        "meta_bstar": -0.002453723,
        "meta_mean_motion_dot": -0.00142025,
        "meta_mean_motion_ddot": 0,
        "tle_line1": "1 66581U 25268AA  25343.58335648 -.00142025  00000+0 -24537-2 0  9996",
        "tle_line2": "2 66581  43.0004 139.5425 0001909 266.1761 238.2140 15.50639905  4115"
      },
      "geometry": {
        "type": "Point",
        "coordinates": [
          16.160071549790175,
          -38.38794546812894
        ]
      }
    },
    {
      "type": "Feature",
      "properties": {
        "norad_id": 66582,
        "name": "STARLINK-35746",
        "group": "last-30-days",
        "lat": -39.0524985820555,
        "lon": 18.455639490597658,
        "alt_km": 417.09568805293384,
        "timestamp": "2025-12-09T20:37:08.056375+00:00",
        "meta_object_name": "STARLINK-35746",
        "meta_object_id": "2025-268AB",
        "meta_epoch": "2025-12-09T14:00:01.999872",
        "meta_mean_motion": 15.50637129,
        "meta_eccentricity": 0.00018905,
        "meta_inclination": 43.0003,
        "meta_ra_of_asc_node": 139.5373,
        "meta_arg_of_pericenter": 268.6047,
        "meta_mean_anomaly": 237.7045,
        "meta_ephemeris_type": 0,
        "meta_classification_type": "U",
        "meta_norad_cat_id": 66582,
        "meta_element_set_no": 999,
        "meta_rev_at_epoch": 416,
        "meta_bstar": -0.0024160713,
        "meta_mean_motion_dot": -0.00139875,
        "meta_mean_motion_ddot": 0,
        "tle_line1": "1 66582U 25268AB  25343.58335648 -.00139875  00000+0 -24161-2 0  9999",
        "tle_line2": "2 66582  43.0003 139.5373 0001890 268.6047 237.7045 15.50637129  4169"
      },
      "geometry": {
        "type": "Point",
        "coordinates": [
          18.455639490597658,
          -39.0524985820555
        ]
      }
    }
  ]
}